H1 CPF 01  gfz 2022 11 23 01  8271 terrasarx 
H2 0702601  6201 31698    2022 11 23 00 59 42 2022 11 28 00 00 42   120 1 1  0 0 0
H9
10 0 59909   9342.000000  0    4290427.625   4925908.154  -2198113.323
10 0 59909   9462.000000  0    4198301.518   4548410.816  -3033293.540
10 0 59909   9582.000000  0    4025742.284   4093974.858  -3815247.095
10 0 59909   9702.000000  0    3774565.023   3571984.823  -4530321.130
10 0 59909   9822.000000  0    3448122.162   2992940.458  -5166064.553
10 0 59909   9942.000000  0    3051254.705   2368240.353  -5711439.121
10 0 59909  10062.000000  0    2590214.942   1709953.846  -6157001.913
10 0 59909  10182.000000  0    2072563.032   1030586.060  -6495057.766
10 0 59909  10302.000000  0    1507040.120    342841.665  -6719779.598
10 0 59909  10422.000000  0     903421.391   -340608.490  -6827299.500
10 0 59909  10542.000000  0     272347.804  -1007356.617  -6815768.851
10 0 59909  10662.000000  0    -374857.843  -1645477.538  -6685384.670
10 0 59909  10782.000000  0   -1026388.303  -2243735.645  -6438387.002
10 0 59909  10902.000000  0   -1670162.393  -2791779.307  -6079025.674
10 0 59909  11022.000000  0   -2294043.763  -3280318.211  -5613494.258
10 0 59909  11142.000000  0   -2886065.505  -3701281.348  -5049834.684
10 0 59909  11262.000000  0   -3434659.212  -4047954.758  -4397810.598
10 0 59909  11382.000000  0   -3928882.430  -4315094.155  -3668748.325
10 0 59909  11502.000000  0   -4358639.693  -4499010.387  -2875349.164
10 0 59909  11622.000000  0   -4714893.289  -4597625.797  -2031473.891
10 0 59909  11742.000000  0   -4989857.945  -4610498.958  -1151902.707
10 0 59909  11862.000000  0   -5177174.377  -4538816.994   -252074.824
10 0 59909  11982.000000  0   -5272057.276  -4385355.386    652187.377
10 0 59909  12102.000000  0   -5271412.989  -4154405.150   1544965.016
10 0 59909  12222.000000  0   -5173922.640  -3851668.087   2410532.794
10 0 59909  12342.000000  0   -4980089.027  -3484123.428   3233644.751
10 0 59909  12462.000000  0   -4692246.550  -3059870.059   3999809.852
10 0 59909  12582.000000  0   -4314533.816  -2587947.847   4695552.645
10 0 59909  12702.000000  0   -3852829.148  -2078142.594   5308651.349
10 0 59909  12822.000000  0   -3314653.562  -1540781.455   5828350.080
10 0 59909  12942.000000  0   -2709042.796   -986522.424   6245544.877
10 0 59909  13062.000000  0   -2046389.105   -426140.615   6552939.114
10 0 59909  13182.000000  0   -1338257.023    129682.698   6745164.040
10 0 59909  13302.000000  0    -597178.988    670561.986   6818865.587
10 0 59909  13422.000000  0     163566.543   1186600.338   6772759.353
10 0 59909  13542.000000  0     930192.390   1668570.155   6607651.777
10 0 59909  13662.000000  0    1688651.961   2108078.416   6326426.595
10 0 59909  13782.000000  0    2424895.646   2497712.741   5933997.167
10 0 59909  13902.000000  0    3125131.250   2831167.625   5437226.796
10 0 59909  14022.000000  0    3776085.463   3103349.063   4844814.984
10 0 59909  14142.000000  0    4365258.614   3310454.829   4167149.716
10 0 59909  14262.000000  0    4881169.683   3450028.694   3416131.715
10 0 59909  14382.000000  0    5313589.699   3520988.905   2604966.962
10 0 59909  14502.000000  0    5653750.473   3523626.062   1747932.246
10 0 59909  14622.000000  0    5894527.926   3459574.042    860120.329
10 0 59909  14742.000000  0    6030594.708   3331752.762    -42833.227
10 0 59909  14862.000000  0    6058536.637   3144283.420   -945034.266
10 0 59909  14982.000000  0    5976931.077   2902378.932  -1830618.424
10 0 59909  15102.000000  0    5786384.273   2612213.656  -2684037.234
10 0 59909  15222.000000  0    5489528.721   2280775.568  -3490336.860
10 0 59909  15342.000000  0    5090980.687   1915703.441  -4235422.865
10 0 59909  15462.000000  0    4597258.346   1525113.902  -4906306.807
10 0 59909  15582.000000  0    4016663.116   1117423.322  -5491326.744
10 0 59909  15702.000000  0    3359130.777    701169.574  -5980341.282
10 0 59909  15822.000000  0    2636053.496    284836.515  -6364895.471
10 0 59909  15942.000000  0    1860077.345   -123314.926  -6638355.048
10 0 59909  16062.000000  0    1044881.042   -515406.171  -6796010.199
10 0 59909  16182.000000  0     204936.629   -884089.192  -6835149.287
10 0 59909  16302.000000  0    -644743.366  -1222680.049  -6755098.719
10 0 59909  16422.000000  0   -1488867.061  -1525276.451  -6557233.388
10 0 59909  16542.000000  0   -2312132.423  -1786858.658  -6244956.215
10 0 59909  16662.000000  0   -3099498.540  -2003371.515  -5823644.942
10 0 59909  16782.000000  0   -3836455.582  -2171787.258  -5300570.082
10 0 59909  16902.000000  0   -4509293.001  -2290148.562  -4684781.714
10 0 59909  17022.000000  0   -5105358.239  -2357589.626  -3986963.734
10 0 59909  17142.000000  0   -5613301.249  -2374335.334  -3219258.678
10 0 59909  17262.000000  0   -6023300.204  -2341677.745  -2395063.429
10 0 59909  17382.000000  0   -6327261.809  -2261929.914  -1528799.005
10 0 59909  17502.000000  0   -6518991.745  -2138358.096   -635658.187
10 0 59909  17622.000000  0   -6594329.656  -1975093.281    268664.807
10 0 59909  17742.000000  0   -6551245.169  -1777023.991   1168256.900
10 0 59909  17862.000000  0   -6389891.218  -1549672.705   2047275.248
10 0 59909  17982.000000  0   -6112612.410  -1299059.832   2890235.659
10 0 59909  18102.000000  0   -5723909.478  -1031558.165   3682293.236
10 0 59909  18222.000000  0   -5230360.224   -753741.279   4409511.155
10 0 59909  18342.000000  0   -4640497.461   -472230.541   5059108.289
10 0 59909  18462.000000  0   -3964652.610   -193544.699   5619682.380
10 0 59909  18582.000000  0   -3214766.161     76045.281   6081408.270
10 0 59909  18702.000000  0   -2404167.747    330652.592   6436205.393
10 0 59909  18822.000000  0   -1547332.789    564898.329   6677873.076
10 0 59909  18942.000000  0    -659619.817    774021.593   6802192.988
10 0 59909  19062.000000  0     243005.943    953974.178   6806997.267
10 0 59909  19182.000000  0    1144258.854   1101497.739   6692203.552
10 0 59909  19302.000000  0    2027825.589   1214183.012   6459816.449
10 0 59909  19422.000000  0    2877659.443   1290509.305   6113894.734
10 0 59909  19542.000000  0    3678272.764   1329863.938   5660485.628
10 0 59909  19662.000000  0    4415022.103   1332541.290   5107523.814
10 0 59909  19782.000000  0    5074379.785   1299721.913   4464699.527
10 0 59909  19902.000000  0    5644191.408   1233431.899   3743295.478
10 0 59909  20022.000000  0    6113910.211   1136483.318   2955990.253
10 0 59909  20142.000000  0    6474800.953   1012395.734   2116635.166
10 0 59909  20262.000000  0    6720111.992    865301.814   1240008.644
10 0 59909  20382.000000  0    6845209.093    699838.876    341549.684
10 0 59909  20502.000000  0    6847667.634    521028.686   -562921.352
10 0 59909  20622.000000  0    6727320.154    334148.756  -1457491.124
10 0 59909  20742.000000  0    6486257.110    144598.734  -2326441.778
10 0 59909  20862.000000  0    6128783.146    -42235.345  -3154533.381
10 0 59909  20982.000000  0    5661330.243   -221114.697  -3927275.383
10 0 59909  21102.000000  0    5092329.337   -387076.124  -4631181.272
10 0 59909  21222.000000  0    4432044.551   -535551.329  -5253999.993
10 0 59909  21342.000000  0    3692377.255   -662475.172  -5784921.637
10 0 59909  21462.000000  0    2886643.064   -764381.591  -6214756.298
10 0 59909  21582.000000  0    2029325.746   -838484.008  -6536082.149
10 0 59909  21702.000000  0    1135815.317   -882738.824  -6743361.603
10 0 59909  21822.000000  0     222134.229   -895892.779  -6833027.613
10 0 59909  21942.000000  0    -695345.623   -877511.382  -6803538.098
10 0 59909  22062.000000  0   -1600189.039   -827989.511  -6655399.442
10 0 59909  22182.000000  0   -2476185.651   -748543.341  -6391158.856
10 0 59909  22302.000000  0   -3307633.576   -641184.076  -6015363.922
10 0 59909  22422.000000  0   -4079615.601   -508673.957  -5534493.866
10 0 59909  22542.000000  0   -4778267.581   -354464.719  -4956859.099
10 0 59909  22662.000000  0   -5391030.436   -182619.648  -4292468.668
10 0 59909  22782.000000  0   -5906883.648      2279.198  -3552868.712
10 0 59909  22902.000000  0   -6316554.875    195238.145  -2750950.120
10 0 59909  23022.000000  0   -6612699.334    390970.367  -1900729.422
10 0 59909  23142.000000  0   -6790045.043    584024.217  -1017105.476
10 0 59909  23262.000000  0   -6845499.665    768916.681   -115594.795
10 0 59909  23382.000000  0   -6778211.817    940269.806    787947.909
10 0 59909  23502.000000  0   -6589588.957   1092946.306   1677615.164
10 0 59909  23622.000000  0   -6283270.966   1222180.954   2537735.864
10 0 59909  23742.000000  0   -5865057.631   1323703.976   3353160.742
10 0 59909  23862.000000  0   -5342791.982   1393853.207   4109536.697
10 0 59909  23982.000000  0   -4726203.818   1429672.364   4793563.268
10 0 59909  24102.000000  0   -4026718.568   1428993.013   5393227.056
10 0 59909  24222.000000  0   -3257236.760   1390498.600   5898010.640
10 0 59909  24342.000000  0   -2431888.364   1313769.272   6299074.010
10 0 59909  24462.000000  0   -1565765.714   1199307.038   6589404.713
10 0 59909  24582.000000  0    -674642.250   1048539.860   6763933.074
10 0 59909  24702.000000  0     225315.816    863805.517   6819614.212
10 0 59909  24822.000000  0    1117841.913    648315.174   6755477.457
10 0 59909  24942.000000  0    1986861.759    406097.763   6572642.146
10 0 59909  25062.000000  0    2816781.620    141925.578   6274299.841
10 0 59909  25182.000000  0    3592768.976   -138778.119   5865663.288
10 0 59909  25302.000000  0    4301020.417   -430047.999   5353880.250
10 0 59909  25422.000000  0    4929011.707   -725500.041   4747914.587
10 0 59909  25542.000000  0    5465726.527  -1018467.228   4058394.998
10 0 59909  25662.000000  0    5901858.551  -1302145.304   3297432.833
10 0 59909  25782.000000  0    6229982.926  -1569745.124   2478410.524
99
